{"fetched_at":"2026-07-19T07:05:36.045Z","source":"https://celestrak.org/NORAD/elements/gp.php?NAME=SPACEMOBILE&FORMAT=JSON","constellation":"ast-spacemobile","records":[{"OBJECT_NAME":"SPACEMOBILE-003","OBJECT_ID":"2024-163A","EPOCH":"2026-07-18T04:05:59.019072","CLASSIFICATION_TYPE":"U","MEAN_MOTION":15.20713856,"ECCENTRICITY":0.00044615,"INCLINATION":52.967,"RA_OF_ASC_NODE":166.9598,"ARG_OF_PERICENTER":203.3197,"MEAN_ANOMALY":156.7595,"EPHEMERIS_TYPE":0,"NORAD_CAT_ID":61045,"ELEMENT_SET_NO":999,"REV_AT_EPOCH":10248,"BSTAR":0.000071564826,"MEAN_MOTION_DOT":0.00001268,"MEAN_MOTION_DDOT":0},{"OBJECT_NAME":"SPACEMOBILE-005","OBJECT_ID":"2024-163B","EPOCH":"2026-07-18T06:51:23.658336","CLASSIFICATION_TYPE":"U","MEAN_MOTION":15.20722937,"ECCENTRICITY":0.00085608,"INCLINATION":52.9757,"RA_OF_ASC_NODE":166.384,"ARG_OF_PERICENTER":205.296,"MEAN_ANOMALY":154.7616,"EPHEMERIS_TYPE":0,"NORAD_CAT_ID":61046,"ELEMENT_SET_NO":999,"REV_AT_EPOCH":10249,"BSTAR":0.00011125988,"MEAN_MOTION_DOT":0.00002152,"MEAN_MOTION_DDOT":0},{"OBJECT_NAME":"SPACEMOBILE-001","OBJECT_ID":"2024-163C","EPOCH":"2026-07-18T06:48:59.717664","CLASSIFICATION_TYPE":"U","MEAN_MOTION":15.20703424,"ECCENTRICITY":0.0007095,"INCLINATION":52.9715,"RA_OF_ASC_NODE":166.1008,"ARG_OF_PERICENTER":203.8926,"MEAN_ANOMALY":156.174,"EPHEMERIS_TYPE":0,"NORAD_CAT_ID":61047,"ELEMENT_SET_NO":999,"REV_AT_EPOCH":10249,"BSTAR":0.000013735,"MEAN_MOTION_DOT":-2.2e-7,"MEAN_MOTION_DDOT":0},{"OBJECT_NAME":"SPACEMOBILE-002","OBJECT_ID":"2024-163D","EPOCH":"2026-07-18T06:25:45.243264","CLASSIFICATION_TYPE":"U","MEAN_MOTION":15.20679207,"ECCENTRICITY":0.00054138,"INCLINATION":52.9785,"RA_OF_ASC_NODE":166.2157,"ARG_OF_PERICENTER":203.1224,"MEAN_ANOMALY":156.9528,"EPHEMERIS_TYPE":0,"NORAD_CAT_ID":61048,"ELEMENT_SET_NO":999,"REV_AT_EPOCH":10249,"BSTAR":-0.00042131939,"MEAN_MOTION_DOT":-0.00009691,"MEAN_MOTION_DDOT":0},{"OBJECT_NAME":"SPACEMOBILE-004","OBJECT_ID":"2024-163E","EPOCH":"2026-07-18T07:35:11.622336","CLASSIFICATION_TYPE":"U","MEAN_MOTION":15.20746753,"ECCENTRICITY":0.0005789,"INCLINATION":52.9719,"RA_OF_ASC_NODE":165.7693,"ARG_OF_PERICENTER":237.6341,"MEAN_ANOMALY":122.4093,"EPHEMERIS_TYPE":0,"NORAD_CAT_ID":61049,"ELEMENT_SET_NO":999,"REV_AT_EPOCH":10250,"BSTAR":0.00048447,"MEAN_MOTION_DOT":0.00010492,"MEAN_MOTION_DDOT":0},{"OBJECT_NAME":"SPACEMOBILE-006","OBJECT_ID":"2025-309A","EPOCH":"2026-07-18T08:52:28.491744","CLASSIFICATION_TYPE":"U","MEAN_MOTION":15.18663329,"ECCENTRICITY":0.00097856,"INCLINATION":52.9937,"RA_OF_ASC_NODE":188.791,"ARG_OF_PERICENTER":226.0321,"MEAN_ANOMALY":133.9866,"EPHEMERIS_TYPE":0,"NORAD_CAT_ID":67232,"ELEMENT_SET_NO":999,"REV_AT_EPOCH":3133,"BSTAR":0.000081418095,"MEAN_MOTION_DOT":0.00001388,"MEAN_MOTION_DDOT":0},{"OBJECT_NAME":"SPACEMOBILE-008","OBJECT_ID":"2026-139A","EPOCH":"2026-07-18T18:52:28.019424","CLASSIFICATION_TYPE":"U","MEAN_MOTION":15.12805085,"ECCENTRICITY":0.0005195,"INCLINATION":52.995,"RA_OF_ASC_NODE":119.1028,"ARG_OF_PERICENTER":64.9472,"MEAN_ANOMALY":295.2057,"EPHEMERIS_TYPE":0,"NORAD_CAT_ID":69589,"ELEMENT_SET_NO":999,"REV_AT_EPOCH":476,"BSTAR":0.000036628,"MEAN_MOTION_DOT":0.00000349,"MEAN_MOTION_DDOT":0},{"OBJECT_NAME":"SPACEMOBILE-009","OBJECT_ID":"2026-139B","EPOCH":"2026-07-18T18:55:39.423072","CLASSIFICATION_TYPE":"U","MEAN_MOTION":15.1269847,"ECCENTRICITY":0.0005443,"INCLINATION":52.9941,"RA_OF_ASC_NODE":119.1107,"ARG_OF_PERICENTER":61.2523,"MEAN_ANOMALY":298.9014,"EPHEMERIS_TYPE":0,"NORAD_CAT_ID":69590,"ELEMENT_SET_NO":999,"REV_AT_EPOCH":476,"BSTAR":0.000035561,"MEAN_MOTION_DOT":0.00000328,"MEAN_MOTION_DDOT":0},{"OBJECT_NAME":"SPACEMOBILE-010","OBJECT_ID":"2026-139C","EPOCH":"2026-07-18T19:00:42.062400","CLASSIFICATION_TYPE":"U","MEAN_MOTION":15.12537049,"ECCENTRICITY":0.0005439,"INCLINATION":52.9947,"RA_OF_ASC_NODE":119.1356,"ARG_OF_PERICENTER":53.7113,"MEAN_ANOMALY":306.4379,"EPHEMERIS_TYPE":0,"NORAD_CAT_ID":69591,"ELEMENT_SET_NO":999,"REV_AT_EPOCH":477,"BSTAR":0.000076987,"MEAN_MOTION_DOT":0.00001057,"MEAN_MOTION_DDOT":0}]}
